#cP2017  5  3  0  0  0.00000000      96 ORBIT IGS14 HLM  IGS
## 1947 259200.00000000   900.00000000 57876 0.0000000000000
+   32   G01G02G03G04G05G06G07G08G09G10G11G12G13G14G15G16G17
+        G18G19G20G21G22G23G24G25G26G27G28G29G30G31G32  0  0
+          0  0  0  0  0  0  0  0  0  0  0  0  0  0  0  0  0
+          0  0  0  0  0  0  0  0  0  0  0  0  0  0  0  0  0
+          0  0  0  0  0  0  0  0  0  0  0  0  0  0  0  0  0
++         2  2  2  0  2  2  2  2  2  2  2  2  2  3  2  2  2
++         2  2  2  2  2  2  2  2  2  2  2  3  2  2  2  0  0
++         0  0  0  0  0  0  0  0  0  0  0  0  0  0  0  0  0
++         0  0  0  0  0  0  0  0  0  0  0  0  0  0  0  0  0
++         0  0  0  0  0  0  0  0  0  0  0  0  0  0  0  0  0
%c G  cc GPS ccc cccc cccc cccc cccc ccccc ccccc ccccc ccccc
%c cc cc ccc ccc cccc cccc cccc cccc ccccc ccccc ccccc ccccc
%f  1.2500000  1.025000000  0.00000000000  0.000000000000000
%f  0.0000000  0.000000000  0.00000000000  0.000000000000000
%i    0    0    0    0      0      0      0      0         0
%i    0    0    0    0      0      0      0      0         0
/* RAPID ORBIT COMBINATION FROM WEIGHTED AVERAGE OF:        
/* cod emr esa gfz jpl ngs sio usn whu                      
/* REFERENCED TO IGS TIME (IGST) AND TO WEIGHTED MEAN POLE: 
/* PCV:IGS14_1930 OL/AL:FES2004  NONE     Y  ORB:CMB CLK:CMB
*  2017  5  3  5 15  0.00000000
PG01   1118.320850  15354.789434 -21726.374465     54.135720  5  8  4 114       
PG02  19030.862129 -15261.346284  10603.375519    427.400160  6  9  5  54       
PG03  10359.436909  21129.402693 -12348.502241   -102.159190     8  5 116       
PG04 -19239.300952  -1662.344960  18130.010666 999999.999999
PG05   9383.094506 -12346.892011  21474.509055    -47.814920  2  6  5  67       
PG06  25692.300966  -5858.717280  -3369.680055    345.847395  6  5  5  63       
PG07  15908.974943   9381.276418  19414.798786    355.736890  5  5  4  63       
PG08  -5643.985902  25897.494916    403.934581    -58.419034  6 11  6 126       
PG09   9967.709054  16299.747330  18420.295605    355.321113  3  8  8 100       
PG10 -21876.439795  -7223.847307 -13286.041508    -63.058574  3  7  5  57       
PG11  -2915.554374  20459.779841 -17277.906570   -685.459516  7  8  6 117       
PG12  -5111.512052 -20550.039187 -16322.046734    384.335429  7  9  6  65       
PG13  12298.514549 -22691.838409   6259.565352    -80.356308  2  7  5 116       
PG14 -16211.323220   9806.611806 -18274.909655    -69.272409  8  1  7 120       
PG15   1455.428756 -26160.637231  -3063.322434   -349.148486  7  9  5  74       
PG16 -10391.298189  10141.584378  22108.494065     32.541938  8  6  4 118       
PG17  14946.632943    138.600485 -21583.172809   -181.361814  6  5  4  97       
PG18 -21864.538056 -14704.428111  -3543.337582    613.578292  4  9  6 114       
PG19  16461.470081  -8582.923225 -19372.125262   -505.067965  5  8  5 120       
PG20  -7064.169498 -20063.695226  15763.091868    470.700292  5 10  7  76       
PG21 -20604.304353  -5519.090281  16688.307131   -509.161388     7  5 119       
PG22   1270.224111  18993.547021 -18245.627064     22.186531  7  9  3  96       
PG23   2588.904841  24190.991414  10349.230065   -211.047438  6 11  6  90       
PG24   1603.986255 -16498.745640 -20794.020214    -34.237137  6  8  4  95       
PG25 -17119.404972 -19947.840680  -4696.853548   -380.587919  7     7 101       
PG26 -17921.113005   2375.913327  19483.302086   -508.306686  5  6  7  81       
PG27 -12311.907137  20364.766926  11515.552915    251.027707  8  9  9 127       
PG28  20825.959307  12172.111399 -10484.114080    609.745220  6  7  7 115       
PG29  -6582.684243 -19182.317576  17163.627058    607.572682  5  8  5  87       
PG30  24597.359948   1227.982743  10109.048513    157.736245  2  7  6  68       
PG31 -25942.216460   6501.563715  -1243.646269    203.473994  5  6  3  95       
PG32 -15650.475065   1427.760740 -21389.237233   -402.849455  6  6  6 105       
*  2017  5  3  5 30  0.00000000
PG01  -1195.871921  16104.877857 -21145.029826     54.136342  5  8  4 115       
PG02  20076.573844 -15386.399131   8037.366862    427.393343  6  9  5  56       
PG03   9056.780879  20283.775211 -14585.323920   -102.157667  1  8  5 110       
PG04 -20652.753259  -3080.610930  16347.419403 999999.999999
PG05  11295.233625 -10773.511511  21419.343449    -47.813213  3  5  5  56       
PG06  25255.327260  -5455.171995  -6167.122298    345.851959  6  5  6  70       
PG07  13807.028542  10164.335445  20566.265490    355.733023  6  7  4  72       
PG08  -5850.294851  25654.193436   3267.181276    -58.419927  6 11  7 132       
PG09   9465.265755  18263.024252  16770.743457    355.328229  3  9  8 106       
PG10 -22800.219653  -8277.339685 -10922.070729    -63.050516  3  7  6  72       
PG11  -4417.823298  21490.089259 -15572.304233   -685.461919  7  8  7 117       
PG12  -3650.048535 -19283.434912 -18155.423841    384.334512  7  9  5  80       
PG13  12244.244957 -21785.411891   8951.187156    -80.357476  2  7  5 124       
PG14 -15773.206889   7620.083320 -19644.651965    -69.273629  8  4  7 112       
PG15   1843.572319 -26294.311725   -258.489550   -349.149112  7  8  6  72       
PG16 -12198.840013   8355.848677  21967.806043     32.542144  7  6  3 105       
PG17  14389.834662   2633.837664 -21810.027853   -181.360093  6  3  5 102       
PG18 -21899.431722 -15163.856814   -785.904497    613.579850  3 10  6 121       
PG19  15923.753160  -6425.331543 -20609.744722   -505.066956  6  6  5 119       
PG20  -5349.752843 -19136.197944  17481.622821    470.701665  5 10  7  83       
PG21 -18926.861663  -6364.738378  18359.301947   -509.159811  2  8  5 129       
PG22   -585.115497  17763.278718 -19468.453136     22.175650  7  9  3 106       
PG23   2117.851794  25145.686792   7766.056595   -211.048160  6 11  6 107       
PG24   3801.323504 -17246.585870 -19855.649119    -34.236914  6  8  3  98       
PG25 -16489.628562 -19649.011649  -7460.586392   -380.593896  7     7  96       
PG26 -19491.623953    907.314404  18054.651059   -508.303465  5  7  7  78       
PG27 -12241.790323  18888.961168  13874.733143    251.033530  7  8  9 130       
PG28  21499.402583  13092.474683  -7839.363632    609.747909  6  7  7 116       
PG29  -6017.867668 -20946.147773  15200.178843    607.569741  5  8  5  78       
PG30  23421.767788   1817.649838  12511.881711    157.735509  2  7  6  77       
PG31 -25711.897944   6211.548112  -4068.112715    203.472100  5  8  2 109       
PG32 -15252.530822  -1010.457804 -21702.130521   -402.859312  6  7  5 100       
*  2017  5  3  5 45  0.00000000
PG01  -3390.204104  16944.553390 -20201.744046     54.136814  5  8  4 115       
PG02  20850.708202 -15431.548875   5332.769526    427.386481  6  9  4  75       
PG03   7521.190196  19363.001707 -16571.534766   -102.156239  2  8  4 107       
PG04 -21969.576141  -4279.389476  14282.183852 999999.999999
PG05  13259.444307  -9314.442096  20993.258768    -47.811268  3  5  5  75       
PG06  24554.552870  -4906.349746  -8858.458666    345.856475  6  5  5  74       
PG07  11645.294431  11100.399460  21372.276542    355.728792  6  8  4  86       
PG08  -6032.695486  25102.444264   6073.913128    -58.420474  6 11  8 124       
PG09   9086.402752  20047.420551  14831.940560    355.335333  3 10  8  95       
PG10 -23555.280325  -9114.143934  -8370.996581    -63.042567  2  7  6  73       
PG11  -5735.549893  22441.897844 -13608.856667   -685.464321  7  8  7 114       
PG12  -1973.734915 -17980.261040 -19682.470869    384.333723  7 10  6  90       
PG13  12169.555895 -20588.199709  11488.478047    -80.359064  2  7  5 119       
PG14 -15421.264330   5279.519588 -20667.068887    -69.274902  8  4  8 109       
PG15   2209.338141 -26127.155831   2550.876672   -349.149961  6  8  6  84       
PG16 -14072.847597   6702.748401  21445.715098     32.543127  7  5  1 114       
PG17  13968.394920   5157.776772 -21648.712849   -181.358941  6  1  6 108       
PG18 -21703.232790 -15440.425719   1984.977361    613.581320  3 10  7 117       
PG19  15481.338643  -4123.522062 -21503.119966   -505.065693  7  5  5 119       
PG20  -3442.433680 -18195.810184  18896.085459    470.702437  4  9  6  87       
PG21 -17145.788632  -7362.140830  19733.679652   -509.157421  2  8  5 125       
PG22  -2593.231137  16550.337972 -20348.639304     22.164688  6  8  3  84       
PG23   1726.120247  25824.155008   5046.851692   -211.048770  5 11  5  97       
PG24   5847.592608 -18050.831140 -18576.126291    -34.236764  6  8  2 102       
PG25 -15602.468890 -19201.630929 -10098.124362   -380.599829  8  1  7  94       
PG26 -20991.623559   -371.171785  16316.147174   -508.300227  4  7  7  87       
PG27 -12221.284944  17158.599684  15991.922804    251.039352  7  7  9 123       
PG28  21991.054049  13761.975177  -5056.613681    609.750725  6  7  7 122       
PG29  -5593.727402 -22504.607240  12975.454031    607.566611  5  8  5  84       
PG30  22032.958054   2552.551831  14700.734913    157.734766  3  7  6  83       
PG31 -25205.490230   5795.204754  -6824.119386    203.469892  5  8  2 118       
PG32 -14979.527772  -3479.687762 -21640.969389   -402.869140  6  7  5 110       
EOF
